start=new Date('2022-12-22T00:00:00.000Z').valueOf();
sats=[{"EPHEMERIS_TYPE":"0","MEAN_ELEMENT_THEORY":"SGP4","MEAN_ANOMALY":"284.2703","PERIOD":"95.592","ECCENTRICITY":"0.00016390","GP_ID":"221114348","MEAN_MOTION":"15.06397039","MEAN_MOTION_DDOT":"0.0000000000000","NORAD_CAT_ID":"45065","EPOCH":"2022-12-20T19:55:32.284128","CLASSIFICATION_TYPE":"U","RCS_SIZE":"LARGE","TIME_SYSTEM":"UTC","MEAN_MOTION_DOT":"0.00000555","ARG_OF_PERICENTER":"75.8468","RA_OF_ASC_NODE":"140.7818","REF_FRAME":"TEME","DECAY_DATE":null,"ELEMENT_SET_NO":"999","COUNTRY_CODE":"US","APOAPSIS":"548.358","PERIAPSIS":"546.088","TLE_LINE1":"1 45065U 20006X   22354.83023477  .00000555  00000-0  56144-4 0  9997","BSTAR":"0.00005614400000","REV_AT_EPOCH":"15966","OBJECT_TYPE":"PAYLOAD","LAUNCH_DATE":"2020-01-29","INCLINATION":"53.0533","SEMIMAJOR_AXIS":"6925.358","OBJECT_ID":"2020-006X","OBJECT_NAME":"STARLINK-1139","SITE":"AFETR","TLE_LINE2":"2 45065  53.0533 140.7818 0001639  75.8468 284.2703 15.06397039159663","FILE":"3716551","CENTER_NAME":"EARTH"},{"ARG_OF_PERICENTER":"63.1697","RA_OF_ASC_NODE":"140.8843","MEAN_MOTION_DOT":"-0.00000001","TIME_SYSTEM":"UTC","ELEMENT_SET_NO":"999","REF_FRAME":"TEME","DECAY_DATE":null,"EPOCH":"2022-12-20T19:18:21.956256","NORAD_CAT_ID":"45066","RCS_SIZE":"LARGE","CLASSIFICATION_TYPE":"U","MEAN_MOTION_DDOT":"0.0000000000000","MEAN_MOTION":"15.06393164","GP_ID":"221114597","ECCENTRICITY":"0.00018170","MEAN_ELEMENT_THEORY":"SGP4","EPHEMERIS_TYPE":"0","PERIOD":"95.593","MEAN_ANOMALY":"296.9478","TLE_LINE2":"2 45066  53.0569 140.8843 0001817  63.1697 296.9478 15.06393164159657","CENTER_NAME":"EARTH","FILE":"3716551","SEMIMAJOR_AXIS":"6925.370","INCLINATION":"53.0569","SITE":"AFETR","OBJECT_NAME":"STARLINK-1145","OBJECT_ID":"2020-006Y","BSTAR":"0.00001885600000","TLE_LINE1":"1 45066U 20006Y   22354.80442079 -.00000001  00000-0  18856-4 0  9993","PERIAPSIS":"545.976","LAUNCH_DATE":"2020-01-29","OBJECT_TYPE":"PAYLOAD","REV_AT_EPOCH":"15965","APOAPSIS":"548.493","COUNTRY_CODE":"US"},{"COUNTRY_CODE":"US","APOAPSIS":"548.316","REV_AT_EPOCH":"15967","LAUNCH_DATE":"2020-01-29","OBJECT_TYPE":"PAYLOAD","PERIAPSIS":"546.079","BSTAR":"0.00009828200000","TLE_LINE1":"1 45067U 20006Z   22354.88550654  .00001183  00000-0  98282-4 0  9993","OBJECT_ID":"2020-006Z","SITE":"AFETR","OBJECT_NAME":"STARLINK-1150","INCLINATION":"53.0534","SEMIMAJOR_AXIS":"6925.333","FILE":"3716551","CENTER_NAME":"EARTH","TLE_LINE2":"2 45067  53.0534 140.5260 0001615  58.4368 301.6779 15.06405151159678","MEAN_ANOMALY":"301.6779","PERIOD":"95.592","MEAN_ELEMENT_THEORY":"SGP4","EPHEMERIS_TYPE":"0","ECCENTRICITY":"0.00016150","MEAN_MOTION_DDOT":"0.0000000000000","GP_ID":"221115348","MEAN_MOTION":"15.06405151","RCS_SIZE":"LARGE","CLASSIFICATION_TYPE":"U","NORAD_CAT_ID":"45067","EPOCH":"2022-12-20T21:15:07.765056","ELEMENT_SET_NO":"999","REF_FRAME":"TEME","DECAY_DATE":null,"TIME_SYSTEM":"UTC","RA_OF_ASC_NODE":"140.5260","ARG_OF_PERICENTER":"58.4368","MEAN_MOTION_DOT":"0.00001183"},{"EPHEMERIS_TYPE":"0","MEAN_ELEMENT_THEORY":"SGP4","PERIOD":"95.593","MEAN_ANOMALY":"274.9769","MEAN_MOTION":"15.06383649","GP_ID":"221115569","MEAN_MOTION_DDOT":"0.0000000000000","ECCENTRICITY":"0.00014470","EPOCH":"2022-12-21T12:32:01.212864","NORAD_CAT_ID":"45068","CLASSIFICATION_TYPE":"U","RCS_SIZE":"LARGE","MEAN_MOTION_DOT":"-0.00002129","ARG_OF_PERICENTER":"85.1385","RA_OF_ASC_NODE":"137.5340","TIME_SYSTEM":"UTC","DECAY_DATE":null,"REF_FRAME":"TEME","ELEMENT_SET_NO":"999","APOAPSIS":"548.266","COUNTRY_CODE":"US","TLE_LINE1":"1 45068U 20006AA  22355.52223626 -.00002129  00000-0 -12416-3 0  9999","BSTAR":"-0.00012416000000","PERIAPSIS":"546.262","LAUNCH_DATE":"2020-01-29","OBJECT_TYPE":"PAYLOAD","REV_AT_EPOCH":"16010","SEMIMAJOR_AXIS":"6925.399","INCLINATION":"53.0537","OBJECT_NAME":"STARLINK-1161","SITE":"AFETR","OBJECT_ID":"2020-006AA","TLE_LINE2":"2 45068  53.0537 137.5340 0001447  85.1385 274.9769 15.06383649160104","CENTER_NAME":"EARTH","FILE":"3716551"},{"TLE_LINE1":"1 45071U 20006AD  22355.44944602  .00001923  00000-0  14796-3 0  9990","BSTAR":"0.00014796000000","PERIAPSIS":"546.102","OBJECT_TYPE":"PAYLOAD","LAUNCH_DATE":"2020-01-29","REV_AT_EPOCH":"15975","APOAPSIS":"548.286","COUNTRY_CODE":"US","TLE_LINE2":"2 45071  53.0549 137.9828 0001577  61.2273 298.8874 15.06406399159750","CENTER_NAME":"EARTH","FILE":"3716551","SEMIMAJOR_AXIS":"6925.329","INCLINATION":"53.0549","OBJECT_NAME":"STARLINK-1167","SITE":"AFETR","OBJECT_ID":"2020-006AD","GP_ID":"221113849","MEAN_MOTION":"15.06406399","MEAN_MOTION_DDOT":"0.0000000000000","ECCENTRICITY":"0.00015770","EPHEMERIS_TYPE":"0","MEAN_ELEMENT_THEORY":"SGP4","PERIOD":"95.592","MEAN_ANOMALY":"298.8874","MEAN_MOTION_DOT":"0.00001923","RA_OF_ASC_NODE":"137.9828","ARG_OF_PERICENTER":"61.2273","TIME_SYSTEM":"UTC","REF_FRAME":"TEME","DECAY_DATE":null,"ELEMENT_SET_NO":"999","EPOCH":"2022-12-21T10:47:12.136128","NORAD_CAT_ID":"45071","CLASSIFICATION_TYPE":"U","RCS_SIZE":"LARGE"},{"PERIOD":"95.593","MEAN_ANOMALY":"279.8870","EPHEMERIS_TYPE":"0","MEAN_ELEMENT_THEORY":"SGP4","MEAN_MOTION":"15.06393019","GP_ID":"221114099","MEAN_MOTION_DDOT":"0.0000000000000","ECCENTRICITY":"0.00011870","CLASSIFICATION_TYPE":"U","RCS_SIZE":"LARGE","EPOCH":"2022-12-20T20:32:41.411040","NORAD_CAT_ID":"45072","DECAY_DATE":null,"REF_FRAME":"TEME","ELEMENT_SET_NO":"999","MEAN_MOTION_DOT":"-0.00001381","ARG_OF_PERICENTER":"80.2253","RA_OF_ASC_NODE":"140.6595","TIME_SYSTEM":"UTC","APOAPSIS":"548.057","COUNTRY_CODE":"US","OBJECT_TYPE":"PAYLOAD","LAUNCH_DATE":"2020-01-29","REV_AT_EPOCH":"15966","TLE_LINE1":"1 45072U 20006AE  22354.85603485 -.00001381  00000-0 -73868-4 0  9992","BSTAR":"-0.00007386800000","PERIAPSIS":"546.413","OBJECT_NAME":"STARLINK-1168","SITE":"AFETR","OBJECT_ID":"2020-006AE","SEMIMAJOR_AXIS":"6925.370","INCLINATION":"53.0544","CENTER_NAME":"EARTH","FILE":"3716551","TLE_LINE2":"2 45072  53.0544 140.6595 0001187  80.2253 279.8870 15.06393019159663"},{"NORAD_CAT_ID":"45073","EPOCH":"2022-12-20T19:34:18.300576","CLASSIFICATION_TYPE":"U","RCS_SIZE":"LARGE","TIME_SYSTEM":"UTC","MEAN_MOTION_DOT":"0.00001832","ARG_OF_PERICENTER":"51.7901","RA_OF_ASC_NODE":"140.8320","REF_FRAME":"TEME","DECAY_DATE":null,"ELEMENT_SET_NO":"999","EPHEMERIS_TYPE":"0","MEAN_ELEMENT_THEORY":"SGP4","MEAN_ANOMALY":"308.3257","PERIOD":"95.592","ECCENTRICITY":"0.00018720","GP_ID":"221114850","MEAN_MOTION":"15.06397881","MEAN_MOTION_DDOT":"0.0000000000000","INCLINATION":"53.0552","SEMIMAJOR_AXIS":"6925.355","OBJECT_ID":"2020-006AF","OBJECT_NAME":"STARLINK-1170","SITE":"AFETR","TLE_LINE2":"2 45073  53.0552 140.8320 0001872  51.7901 308.3257 15.06397881159652","FILE":"3716551","CENTER_NAME":"EARTH","COUNTRY_CODE":"US","APOAPSIS":"548.516","PERIAPSIS":"545.924","TLE_LINE1":"1 45073U 20006AF  22354.81548959  .00001832  00000-0  14185-3 0  9998","BSTAR":"0.00014185000000","REV_AT_EPOCH":"15965","OBJECT_TYPE":"PAYLOAD","LAUNCH_DATE":"2020-01-29"},{"FILE":"3716551","CENTER_NAME":"EARTH","TLE_LINE2":"2 45074  53.0549 137.6267 0001302  82.9909 277.1228 15.06394642160100","OBJECT_ID":"2020-006AG","SITE":"AFETR","OBJECT_NAME":"STARLINK-1172","INCLINATION":"53.0549","SEMIMAJOR_AXIS":"6925.365","REV_AT_EPOCH":"16010","LAUNCH_DATE":"2020-01-29","OBJECT_TYPE":"PAYLOAD","PERIAPSIS":"546.328","BSTAR":"0.00018943000000","TLE_LINE1":"1 45074U 20006AG  22355.53056440  .00002541  00000-0  18943-3 0  9992","COUNTRY_CODE":"US","APOAPSIS":"548.132","ELEMENT_SET_NO":"999","REF_FRAME":"TEME","DECAY_DATE":null,"TIME_SYSTEM":"UTC","RA_OF_ASC_NODE":"137.6267","ARG_OF_PERICENTER":"82.9909","MEAN_MOTION_DOT":"0.00002541","RCS_SIZE":"LARGE","CLASSIFICATION_TYPE":"U","NORAD_CAT_ID":"45074","EPOCH":"2022-12-21T12:44:00.764160","ECCENTRICITY":"0.00013020","MEAN_MOTION_DDOT":"0.0000000000000","GP_ID":"221115070","MEAN_MOTION":"15.06394642","MEAN_ANOMALY":"277.1228","PERIOD":"95.592","MEAN_ELEMENT_THEORY":"SGP4","EPHEMERIS_TYPE":"0"},{"MEAN_MOTION_DDOT":"0.0000000000000","GP_ID":"221114349","MEAN_MOTION":"15.06395654","ECCENTRICITY":"0.00015700","MEAN_ELEMENT_THEORY":"SGP4","EPHEMERIS_TYPE":"0","PERIOD":"95.592","MEAN_ANOMALY":"289.7961","RA_OF_ASC_NODE":"138.0819","ARG_OF_PERICENTER":"70.3198","MEAN_MOTION_DOT":"0.00000573","TIME_SYSTEM":"UTC","ELEMENT_SET_NO":"999","DECAY_DATE":null,"REF_FRAME":"TEME","EPOCH":"2022-12-21T10:20:40.846848","NORAD_CAT_ID":"45075","RCS_SIZE":"LARGE","CLASSIFICATION_TYPE":"U","BSTAR":"0.00005738600000","TLE_LINE1":"1 45075U 20006AH  22355.43102832  .00000573  00000-0  57386-4 0  9997","PERIAPSIS":"546.140","OBJECT_TYPE":"PAYLOAD","LAUNCH_DATE":"2020-01-29","REV_AT_EPOCH":"15975","APOAPSIS":"548.314","COUNTRY_CODE":"US","TLE_LINE2":"2 45075  53.0561 138.0819 0001570  70.3198 289.7961 15.06395654159757","CENTER_NAME":"EARTH","FILE":"3716551","SEMIMAJOR_AXIS":"6925.362","INCLINATION":"53.0561","SITE":"AFETR","OBJECT_NAME":"STARLINK-1174","OBJECT_ID":"2020-006AH"},{"ECCENTRICITY":"0.00014790","MEAN_MOTION_DDOT":"0.0000000000000","GP_ID":"221114598","MEAN_MOTION":"15.06383886","MEAN_ANOMALY":"303.7199","PERIOD":"95.593","MEAN_ELEMENT_THEORY":"SGP4","EPHEMERIS_TYPE":"0","ELEMENT_SET_NO":"999","REF_FRAME":"TEME","DECAY_DATE":null,"TIME_SYSTEM":"UTC","ARG_OF_PERICENTER":"56.3931","RA_OF_ASC_NODE":"137.7469","MEAN_MOTION_DOT":"-0.00003406","RCS_SIZE":"LARGE","CLASSIFICATION_TYPE":"U","NORAD_CAT_ID":"45076","EPOCH":"2022-12-21T12:05:29.357664","REV_AT_EPOCH":"16010","LAUNCH_DATE":"2020-01-29","OBJECT_TYPE":"PAYLOAD","PERIAPSIS":"546.239","BSTAR":"-0.00020995000000","TLE_LINE1":"1 45076U 20006AJ  22355.50381201 -.00003406  00000-0 -20995-3 0  9990","COUNTRY_CODE":"US","APOAPSIS":"548.287","FILE":"3716551","CENTER_NAME":"EARTH","TLE_LINE2":"2 45076  53.0540 137.7469 0001479  56.3931 303.7199 15.06383886160104","OBJECT_ID":"2020-006AJ","SITE":"AFETR","OBJECT_NAME":"STARLINK-1180","INCLINATION":"53.0540","SEMIMAJOR_AXIS":"6925.398"}];
